P/2015 X3 (PANSTARRS),e,24.3999,77.2803,306.7132,5.006342,0.0879880,0.43969540,213.4048,04/01.0/2022,2000,g 15.0,4.0
# From MPC119995
C/2015 X5 (PANSTARRS),h,12/27.9244/2017,124.3118,122.3288,27.5760,1.000104,6.794545,2000,7.5,4.0
# From MPC115881
P/2015 X6 (PANSTARRS),e,4.5645,106.9401,329.8121,2.753145,0.2157548,0.17283878,114.5605,04/01.0/2022,2000,g 16.0,4.0
# From MPEC 2021-P47
C/2016 A1 (PANSTARRS),e,121.2083,128.1921,10.1384,84267,0.0000000,0.99993689,0.0000,11/21.4140/2017,2000,g  6.0,4.0
# From MPC100282
P/2016 A2 (Christensen),e,26.4030,291.6176,141.3276,4.753211,0.0951094,0.27062405,236.1699,04/01.0/2022,2000,g 11.5,4.0
# From MPC115881
P/2016 A3 (PANSTARRS),e,8.5103,187.2350,340.9870,7.884456,0.0445191,0.38619040,80.1283,04/01.0/2022,2000,g 10.0,4.0
# From MPC102098
P/2016 A7 (PANSTARRS),e,16.6058,221.4971,352.5773,5.034072,0.0872620,0.56449505,194.6285,04/01.0/2022,2000,g 16.0,4.0
# From MPC109143
P/2016 BA14 (PANSTARRS),e,18.8948,180.5199,351.9164,3.025449,0.1872920,0.66507613,53.8823,04/01.0/2022,2000,g 21.0,4.0
# From MPC110494
C/2016 E1 (PANSTARRS),h,06/03.9262/2017,131.8707,233.1243,47.4574,1.006223,8.174235,2000,6.5,4.0
# From MPEC 2021-P47
P/2016 G1 (PANSTARRS),e,10.9714,204.0228,111.1120,2.582269,0.2375209,0.21096462,89.1050,04/01.0/2022,2000,g 14.0,4.0
# From MPEC 2017-D91
P/2016 J1-A (PANSTARRS),e,14.3288,199.8116,46.9914,3.172059,0.1744585,0.22773070,6.8533,04/01.0/2022,2000,g 16.5,4.0
# From MPEC 2017-A77
P/2016 J1-B (PANSTARRS),e,14.3315,199.8164,46.8825,3.171689,0.1744890,0.22758133,6.9925,04/01.0/2022,2000,g 17.0,4.0
# From MPEC 2022-ED3
C/2016 M1 (PANSTARRS),e,90.9320,92.2387,209.9332,77797,0.0000000,0.99997154,0.0000,08/10.5489/2018,2000,g  5.0,4.0
# From MPEC 2021-N06
C/2016 N4 (MASTER),e,72.6509,353.9903,55.9525,4823,0.0000029,0.99933721,0.0000,09/17.3142/2017,2000,g  8.5,4.0
# From MPEC 2021-P47
C/2016 N6 (PANSTARRS),e,105.8466,298.9602,162.6347,1100,0.0000270,0.99758053,0.0000,07/17.7406/2018,2000,g  7.0,4.0
# From MPC102099
P/2016 P1 (PANSTARRS),e,24.4537,319.5670,270.1855,3.194863,0.1725940,0.28924404,50.8213,04/01.0/2022,2000,g 15.0,4.0
# From MPEC 2022-ED3
C/2016 Q2 (PANSTARRS),h,05/12.1533/2021,109.3876,322.2991,84.5459,1.001923,7.081949,2000,6.0,4.0
# From MPC102955
C/2016 Q4 (Kowalski),e,7.2511,271.2966,99.5623,16.98827,0.0140760,0.58259469,21.4240,04/01.0/2022,2000,g  7.0,4.0
# From MPEC 2021-N06
C/2016 R2 (PANSTARRS),e,58.2805,80.5349,33.1132,479.5547,0.0000939,0.99458032,0.0000,05/09.0001/2018,2000,g  7.0,4.0
# From MPC109144
P/2016 R4 (Gibbs),e,10.8777,168.2619,174.0884,5.332089,0.0800494,0.47640063,166.3072,04/01.0/2022,2000,g 12.5,4.0
# From MPC105543
P/2016 S1 (PANSTARRS),e,94.7108,227.6095,273.2740,8.277494,0.0413862,0.71005373,76.2296,04/01.0/2022,2000,g 12.0,4.0
# From MPC110082
C/2016 T3 (PANSTARRS),e,22.7020,271.6847,194.5853,129.2534,0.0006707,0.97956608,0.0000,09/06.6276/2017,2000,g 10.5,4.0
# From MPC106345
P/2016 WM48 (Lemmon),e,117.5268,59.9180,36.1127,8.166499,0.0422328,0.78356585,78.6699,04/01.0/2022,2000,g 15.0,4.0
# From MPEC 2021-P47
C/2016 X1 (Lemmon),e,26.4544,256.3716,224.4751,1266,0.0000219,0.99403100,0.0000,04/27.8760/2019,2000,g  6.0,4.0
# From MPC108594
C/2017 A1 (PANSTARRS),e,49.8127,121.0169,1.9405,75.02741,0.0015166,0.96954314,2.7011,04/01.0/2022,2000,g 13.0,4.0
# From MPC114598
C/2017 AB5 (PANSTARRS),e,32.4561,42.6097,78.2933,2322,0.0000088,0.99603466,0.0000,02/14.4932/2018,2000,g  5.5,4.0
# From MPEC 2022-A21
C/2017 B3 (LINEAR),h,02/02.0876/2019,54.1604,2.1761,284.8178,1.000857,3.926374,2000,6.0,4.0
# From MPC103847
P/2017 B4 (PANSTARRS),e,20.0584,121.4578,11.0197,4.410520,0.1064068,0.36495152,359.9130,01/05.0/2017,2000,g 14.5,4.0
# From MPC104793
P/2017 D1 (Fuls),e,20.7606,82.1825,7.9713,4.828842,0.0928837,0.43650532,195.8174,04/01.0/2022,2000,g 14.0,4.0
# From MPC112391
C/2017 D2 (Barros),e,31.2577,330.9511,334.6315,12204,0.0000007,0.99979534,0.0000,07/14.6640/2017,2000,g 11.0,4.0
# From MPC114598
C/2017 D3 (ATLAS),h,04/27.4510/2017,125.5910,186.7163,340.8090,1.002058,4.965637,2000,8.0,4.0
# From MPC110495
P/2017 D4 (PANSTARRS),e,10.5394,264.9387,212.1862,7.554117,0.0474710,0.62854212,96.5714,04/01.0/2022,2000,g 13.0,4.0
# From MPC106346
C/2017 E1 (Borisov),h,04/10.4096/2017,14.5709,142.5724,152.7865,1.003248,0.907073,2000,14.0,4.0
# From MPEC 2021-P47
C/2017 E3 (PANSTARRS),h,06/07.2994/2017,70.6605,220.7927,334.4611,1.005900,5.936180,2000,6.5,4.0
# From MPC105239
C/2017 E4 (Lovejoy),h,04/23.3319/2017,87.9747,222.7896,87.0890,1.001484,0.491969,2000,17.0,4.0
# From MPC111769
C/2017 F1 (Lemmon),h,11/28.8178/2017,146.4611,158.7883,64.7236,1.002027,4.497723,2000,10.5,4.0
# From MPC114598
C/2017 F2 (PANSTARRS),h,11/26.1288/2017,42.5480,38.6959,134.9450,1.002250,6.927738,2000,7.5,4.0
# From MPC104794
P/2017 G1 (PANSTARRS),e,4.7793,249.6494,224.4267,7.279559,0.0501818,0.65320562,108.6531,04/01.0/2022,2000,g 13.5,4.0
# From MPC108595
P/2017 G2 (PANSTARRS),e,47.9529,79.8085,105.4799,8.056713,0.0430990,0.64761647,75.6851,04/01.0/2022,2000,g 13.0,4.0
# From MPEC 2021-P47
C/2017 G3 (PANSTARRS),e,159.0329,279.4545,73.0211,311.8954,0.0001789,0.99172258,0.0000,04/16.4304/2017,2000,g 14.0,4.0
# From MPC115882
C/2017 K1 (PANSTARRS),h,03/17.9743/2018,154.0205,225.7107,4.4351,1.003356,7.287045,2000,7.0,4.0
# From MPEC 2022-F14
C/2017 K2 (PANSTARRS),h,12/19.6849/2022,87.5595,88.2362,236.1939,1.000743,1.797053,2000,1.5,4.0
# From MPEC 2021-N06
P/2017 K3 (Gasparovic),e,4.2730,354.2874,253.4452,5.584039,0.0746933,0.57960245,132.0097,04/01.0/2022,2000,g 14.5,4.0
# From MPC114598
C/2017 K4 (ATLAS),e,16.6715,298.8940,15.3197,28.66300,0.0064228,0.90728315,9.9139,04/01.0/2022,2000,g 10.0,4.0
# From MPEC 2021-P47
C/2017 K5 (PANSTARRS),h,03/27.2664/2020,82.2391,102.3751,172.0543,1.005502,7.682910,2000,5.0,4.0
# From MPC114599
C/2017 K6 (Jacques),e,57.2291,84.9500,303.7764,1166,0.0000248,0.99828836,0.0000,01/03.8540/2018,2000,g 11.0,4.0
# From MPEC 2021-P47
C/2017 M3 (PANSTARRS),e,77.5912,7.0395,110.2743,166.8996,0.0004571,0.97213202,0.0000,04/28.3708/2017,2000,g 10.5,4.0
# From MPEC 2021-Y10
C/2017 M4 (ATLAS),h,01/17.9604/2019,105.6464,65.9281,167.6176,1.001393,3.253431,2000,6.0,4.0
# From MPC118841
C/2017 M5 (TOTAS),h,06/04.4592/2018,15.8673,216.2889,92.8327,1.005397,6.000708,2000,6.5,4.0
# From MPC114599
C/2017 O1 (ASASSN),e,39.9684,25.7239,20.8373,369.5156,0.0001388,0.99596382,0.0000,10/15.5647/2017,2000,g 11.0,4.0
# From MPC114599
P/2017 P1 (PANSTARRS),e,7.6915,221.3801,122.5578,7.907116,0.0443279,0.31102050,61.1421,04/01.0/2022,2000,g 10.0,4.0
# From MPC114599
C/2017 P2 (PANSTARRS),e,50.0482,165.4564,132.4774,2515,0.0000078,0.99901700,0.0000,12/06.2391/2017,2000,g 10.0,4.0
# From MPC108595
C/2017 S2 (PANSTARRS),e,12.6707,62.3420,306.0804,20.62518,0.0105222,0.82481160,17.6189,04/01.0/2022,2000,g 13.0,4.0
# From MPC114599
C/2017 S3 (PANSTARRS),h,08/16.4026/2018,99.2075,171.3108,255.7987,1.000069,0.206406,2000,11.0,4.0
# From MPC109591
C/2017 S6 (Catalina),h,02/26.1442/2018,152.8666,131.0732,134.9363,1.000817,1.549334,2000,12.5,4.0
# From MPC114599
C/2017 S7 (Lemmon),e,124.2245,262.7389,187.5179,6911,0.0000017,0.99889931,0.0000,05/23.8732/2017,2000,g  7.0,4.0
# From MPC114599
P/2017 S8 (PANSTARRS),e,29.8573,191.5256,254.8048,2.779866,0.2126514,0.39105882,324.2110,04/01.0/2022,2000,g 16.0,4.0
# From MPC107050
P/2017 S9 (PANSTARRS),e,14.1439,146.2232,237.6624,3.154350,0.1759297,0.30545857,301.5041,04/01.0/2022,2000,g 17.0,4.0
# From MPC114600
C/2017 T1 (Heinze),e,96.8826,102.4566,97.0056,11405,0.0000008,0.99994869,0.0000,02/20.7614/2018,2000,g 14.5,4.0
# From MPEC 2021-Y10
C/2017 T2 (PANSTARRS),e,57.2384,64.3864,92.9748,1893,0.0000120,0.99914691,0.0000,05/04.8199/2020,2000,g  5.0,4.0
# From MPC114600
C/2017 T3 (ATLAS),e,88.1792,230.1685,246.8196,1183,0.0000242,0.99930322,0.0000,07/18.9109/2018,2000,g 10.0,4.0
# From MPC115882
P/2017 TW13 (Lemmon),e,44.8496,322.2886,119.9267,7.137998,0.0516820,0.70985565,71.3091,04/01.0/2022,2000,g 15.0,2.0
# From MPC114600
C/2017 U2 (Fuls),e,95.3888,149.7092,147.8644,2739,0.0000069,0.99754864,0.0000,08/28.1771/2017,2000,g  9.0,4.0
# From MPC114600
P/2017 U3 (PANSTARRS),e,15.9188,165.1113,296.4919,4.926919,0.0901241,0.09911072,97.6600,04/01.0/2022,2000,g 11.0,4.0
# From MPEC 2021-P47
C/2017 U4 (PANSTARRS),h,09/22.3563/2018,158.2071,245.9251,158.9836,1.000679,7.721023,2000,7.0,4.0
# From MPC114600
C/2017 U5 (PANSTARRS),e,18.9787,163.0865,261.9946,16.89134,0.0141974,0.74444794,22.2045,04/01.0/2022,2000,g 12.0,4.0
# From MPEC 2022-ED3
C/2017 U7 (PANSTARRS),h,09/14.6363/2019,142.5995,276.2508,326.3684,1.000835,6.425921,2000,8.3,2.0
# From MPC114600
C/2017 W2 (Leonard),e,98.2022,312.8294,168.9262,13.62567,0.0195960,0.71031672,31.5964,04/01.0/2022,2000,g 11.0,4.0
# From MPC114601
P/2017 W3 (Gibbs),e,18.1667,210.2395,327.8463,7.837008,0.0449240,0.50661117,67.0857,04/01.0/2022,2000,g 10.5,4.0
# From MPEC 2021-R75
C/2017 X1 (PANSTARRS),e,31.3198,251.1397,283.2193,31.12964,0.0056747,0.85004609,7.8684,04/01.0/2022,2000,g 10.0,4.0
# From MPC117069
C/2017 Y1 (PANSTARRS),e,55.2589,307.5088,134.2517,1767,0.0000133,0.99790343,0.0000,08/31.4978/2017,2000,g 11.5,4.0
# From MPEC 2022-ED3
C/2017 Y2 (PANSTARRS),h,11/04.9515/2020,128.4220,65.9977,147.9212,1.001019,4.632853,2000,15.0,4.0
# From MPC111770
P/2017 Y3 (Leonard),e,27.5577,153.8431,67.6068,9.833079,0.0319646,0.86971220,48.3105,04/01.0/2022,2000,g 16.5,4.0
# From MPC114601
C/2018 A1 (PANSTARRS),e,53.6137,336.6591,96.1990,25.10300,0.0078364,0.90403252,12.7176,04/01.0/2022,2000,g 12.5,4.0
# From MPEC 2021-P47
C/2018 A3 (ATLAS),e,139.5373,194.2930,86.3625,402.1182,0.0001222,0.99185166,0.0000,01/11.8144/2019,2000,g  8.5,4.0
# From MPC114601
C/2018 A4 (PANSTARRS),e,3.1493,97.6051,355.9776,12.18646,0.0231679,0.80352649,32.7411,04/01.0/2022,2000,g 14.0,4.0
# From MPC109147
P/2018 A5 (PANSTARRS),e,23.5944,87.8045,359.5049,5.630934,0.0737621,0.52281082,121.7586,04/01.0/2022,2000,g 15.0,4.0
# From MPEC 2022-C56
